[
    {
        "Altitude(m)": 571551.230320297,
        "Argument of Periapsis(deg)": 0.0,
        "Eccentricity": 0.0,
        "Inclination(deg)": 53.0,
        "Latitude(deg)": -52.38806228580503,
        "Longitude(deg)": 51.62419771396297,
        "Mean Anomaly(deg)": -98.18179999999998,
        "RAAN(deg)": 255.0,
        "Satellite Name": "Starlink Shell 1 1138",
        "Satellite Number": 1138,
        "Semi-Major Axis(m)": 6931778.249405717,
        "Time(s)": 0
    },
    {
        "Altitude(m)": 571594.3724179028,
        "Argument of Periapsis(deg)": 0.00034857847951123687,
        "Eccentricity": 0.0,
        "Inclination(deg)": 53.0,
        "Latitude(deg)": -52.49950447039407,
        "Longitude(deg)": 52.58859333455938,
        "Mean Anomaly(deg)": -97.55496879644332,
        "RAAN(deg)": 254.9994812299225,
        "Satellite Name": "Starlink Shell 1 1138",
        "Satellite Number": 1138,
        "Semi-Major Axis(m)": 6931778.249405717,
        "Time(s)": 10
    },
    {
        "Altitude(m)": 571634.1335810788,
        "Argument of Periapsis(deg)": 0.0006971569590224737,
        "Eccentricity": 0.0,
        "Inclination(deg)": 53.0,
        "Latitude(deg)": -52.602359276474196,
        "Longitude(deg)": 53.55788170005514,
        "Mean Anomaly(deg)": -96.92813759288661,
        "RAAN(deg)": 254.9989624598451,
        "Satellite Name": "Starlink Shell 1 1138",
        "Satellite Number": 1138,
        "Semi-Major Axis(m)": 6931778.249405717,
        "Time(s)": 20
    },
    {
        "Altitude(m)": 571670.497927421,
        "Argument of Periapsis(deg)": 0.0010457354385337105,
        "Eccentricity": 0.0,
        "Inclination(deg)": 53.0,
        "Latitude(deg)": -52.696555100556765,
        "Longitude(deg)": 54.53170685344415,
        "Mean Anomaly(deg)": -96.3013063893299,
        "RAAN(deg)": 254.9984436897676,
        "Satellite Name": "Starlink Shell 1 1138",
        "Satellite Number": 1138,
        "Semi-Major Axis(m)": 6931778.249405717,
        "Time(s)": 30
    },
    {
        "Altitude(m)": 571703.4509277211,
        "Argument of Periapsis(deg)": 0.0013943139180449475,
        "Eccentricity": 0.0,
        "Inclination(deg)": 53.0,
        "Latitude(deg)": -52.7820256777614,
        "Longitude(deg)": 55.50970091304481,
        "Mean Anomaly(deg)": -95.67447518577303,
        "RAAN(deg)": 254.99792491969012,
        "Satellite Name": "Starlink Shell 1 1138",
        "Satellite Number": 1138,
        "Semi-Major Axis(m)": 6931778.249405717,
        "Time(s)": 40
    },
    {
        "Altitude(m)": 571732.9794122495,
        "Argument of Periapsis(deg)": 0.0017428923975561844,
        "Eccentricity": 0.0,
        "Inclination(deg)": 53.0,
        "Latitude(deg)": -52.8587103035977,
        "Longitude(deg)": 56.49148389736887,
        "Mean Anomaly(deg)": -95.0476439822164,
        "RAAN(deg)": 254.99740614961266,
        "Satellite Name": "Starlink Shell 1 1138",
        "Satellite Number": 1138,
        "Semi-Major Axis(m)": 6931778.249405717,
        "Time(s)": 50
    },
    {
        "Altitude(m)": 571759.0715764718,
        "Argument of Periapsis(deg)": 0.002091470877067421,
        "Eccentricity": 0.0,
        "Inclination(deg)": 53.0,
        "Latitude(deg)": -52.92655404052014,
        "Longitude(deg)": 57.476665139346416,
        "Mean Anomaly(deg)": -94.42081277865974,
        "RAAN(deg)": 254.9968873795352,
        "Satellite Name": "Starlink Shell 1 1138",
        "Satellite Number": 1138,
        "Semi-Major Axis(m)": 6931778.249405717,
        "Time(s)": 60
    },
    {
        "Altitude(m)": 571781.7169861471,
        "Argument of Periapsis(deg)": 0.0024400493565786582,
        "Eccentricity": 0.0,
        "Inclination(deg)": 53.0,
        "Latitude(deg)": -52.9855079076621,
        "Longitude(deg)": 58.464844772524984,
        "Mean Anomaly(deg)": -93.79398157510296,
        "RAAN(deg)": 254.9963686094577,
        "Satellite Name": "Starlink Shell 1 1138",
        "Satellite Number": 1138,
        "Semi-Major Axis(m)": 6931778.249405717,
        "Time(s)": 70
    },
    {
        "Altitude(m)": 571800.9065818398,
        "Argument of Periapsis(deg)": 0.002788627836089895,
        "Eccentricity": 0.0,
        "Inclination(deg)": 53.0,
        "Latitude(deg)": -53.035529052252556,
        "Longitude(deg)": 59.455613770997495,
        "Mean Anomaly(deg)": -93.16715037154621,
        "RAAN(deg)": 254.99584983938024,
        "Satellite Name": "Starlink Shell 1 1138",
        "Satellite Number": 1138,
        "Semi-Major Axis(m)": 6931778.249405717,
        "Time(s)": 80
    },
    {
        "Altitude(m)": 571816.632682856,
        "Argument of Periapsis(deg)": 0.0031372063156011316,
        "Eccentricity": 0.0,
        "Inclination(deg)": 53.0,
        "Latitude(deg)": -53.07658090133289,
        "Longitude(deg)": 60.44855556258396,
        "Mean Anomaly(deg)": -92.54031916798955,
        "RAAN(deg)": 254.99533106930275,
        "Satellite Name": "Starlink Shell 1 1138",
        "Satellite Number": 1138,
        "Semi-Major Axis(m)": 6931778.249405717,
        "Time(s)": 90
    },
    {
        "Altitude(m)": 571828.8889905439,
        "Argument of Periapsis(deg)": 0.0034857847951123688,
        "Eccentricity": 0.0,
        "Inclination(deg)": 53.0,
        "Latitude(deg)": -53.10863329253456,
        "Longitude(deg)": 61.44324769541052,
        "Mean Anomaly(deg)": -91.91348796443289,
        "RAAN(deg)": 254.99481229922526,
        "Satellite Name": "Starlink Shell 1 1138",
        "Satellite Number": 1138,
        "Semi-Major Axis(m)": 6931778.249405717,
        "Time(s)": 100
    },
    {
        "Altitude(m)": 571837.6705910456,
        "Argument of Periapsis(deg)": 0.003834363274623606,
        "Eccentricity": 0.0,
        "Inclination(deg)": 53.0,
        "Latitude(deg)": -53.131662582833954,
        "Longitude(deg)": 62.439262037333194,
        "Mean Anomaly(deg)": -91.28665676087616,
        "RAAN(deg)": 254.99429352914785,
        "Satellite Name": "Starlink Shell 1 1138",
        "Satellite Number": 1138,
        "Semi-Major Axis(m)": 6931778.249405717,
        "Time(s)": 110
    },
    {
        "Altitude(m)": 571842.9739574025,
        "Argument of Periapsis(deg)": 0.004182941754134842,
        "Eccentricity": 0.0,
        "Inclination(deg)": 53.0,
        "Latitude(deg)": -53.14565173436851,
        "Longitude(deg)": 63.43616652565904,
        "Mean Anomaly(deg)": -90.65982555731938,
        "RAAN(deg)": 254.99377475907033,
        "Satellite Name": "Starlink Shell 1 1138",
        "Satellite Number": 1138,
        "Semi-Major Axis(m)": 6931778.249405717,
        "Time(s)": 120
    },
    {
        "Altitude(m)": 571844.7969510967,
        "Argument of Periapsis(deg)": 0.004531520233646079,
        "Eccentricity": 0.0,
        "Inclination(deg)": 53.0,
        "Latitude(deg)": -53.15059037658897,
        "Longitude(deg)": 64.43352694550698,
        "Mean Anomaly(deg)": -90.0329943537627,
        "RAAN(deg)": 254.99325598899284,
        "Satellite Name": "Starlink Shell 1 1138",
        "Satellite Number": 1138,
        "Semi-Major Axis(m)": 6931778.249405717,
        "Time(s)": 130
    },
    {
        "Altitude(m)": 571843.1388229782,
        "Argument of Periapsis(deg)": 0.0048800987131573164,
        "Eccentricity": 0.0,
        "Inclination(deg)": 53.0,
        "Latitude(deg)": -53.146474844218304,
        "Longitude(deg)": 65.43090721475865,
        "Mean Anomaly(deg)": -89.40616315020597,
        "RAAN(deg)": 254.99273721891544,
        "Satellite Name": "Starlink Shell 1 1138",
        "Satellite Number": 1138,
        "Semi-Major Axis(m)": 6931778.249405717,
        "Time(s)": 140
    },
    {
        "Altitude(m)": 571838.000213583,
        "Argument of Periapsis(deg)": 0.005228677192668553,
        "Eccentricity": 0.0,
        "Inclination(deg)": 53.0,
        "Latitude(deg)": -53.13330819068961,
        "Longitude(deg)": 66.42787119189596,
        "Mean Anomaly(deg)": -88.77933194664921,
        "RAAN(deg)": 254.99221844883795,
        "Satellite Name": "Starlink Shell 1 1138",
        "Satellite Number": 1138,
        "Semi-Major Axis(m)": 6931778.249405717,
        "Time(s)": 150
    },
    {
        "Altitude(m)": 571829.3831528649,
        "Argument of Periapsis(deg)": 0.00557725567217979,
        "Eccentricity": 0.0,
        "Inclination(deg)": 53.0,
        "Latitude(deg)": -53.11110017694862,
        "Longitude(deg)": 67.42398448427657,
        "Mean Anomaly(deg)": -88.15250074309253,
        "RAAN(deg)": 254.99169967876045,
        "Satellite Name": "Starlink Shell 1 1138",
        "Satellite Number": 1138,
        "Semi-Major Axis(m)": 6931778.249405717,
        "Time(s)": 160
    },
    {
        "Altitude(m)": 571817.2910593168,
        "Argument of Periapsis(deg)": 0.0059258341516910265,
        "Eccentricity": 0.0,
        "Inclination(deg)": 53.0,
        "Latitude(deg)": -53.07986723571856,
        "Longitude(deg)": 68.41881473439089,
        "Mean Anomaly(deg)": -87.52566953953581,
        "RAAN(deg)": 254.991180908683,
        "Satellite Name": "Starlink Shell 1 1138",
        "Satellite Number": 1138,
        "Semi-Major Axis(m)": 6931778.249405717,
        "Time(s)": 170
    },
    {
        "Altitude(m)": 571801.7287385109,
        "Argument of Periapsis(deg)": 0.006274412631202263,
        "Eccentricity": 0.0,
        "Inclination(deg)": 53.0,
        "Latitude(deg)": -53.03963241153109,
        "Longitude(deg)": 69.41193340037587,
        "Mean Anomaly(deg)": -86.89883833597912,
        "RAAN(deg)": 254.9906621386055,
        "Satellite Name": "Starlink Shell 1 1138",
        "Satellite Number": 1138,
        "Semi-Major Axis(m)": 6931778.249405717,
        "Time(s)": 180
    }
]